CCSDS_OMM_VERS,COMMENT,CREATION_DATE,ORIGINATOR,OBJECT_NAME,OBJECT_ID,CENTER_NAME,REF_FRAME,TIME_SYSTEM,MEAN_ELEMENT_THEORY,EPOCH,MEAN_MOTION,ECCENTRICITY,INCLINATION,RA_OF_ASC_NODE,ARG_OF_PERICENTER,MEAN_ANOMALY,EPHEMERIS_TYPE,CLASSIFICATION_TYPE,NORAD_CAT_ID,ELEMENT_SET_NO,REV_AT_EPOCH,BSTAR,MEAN_MOTION_DOT,MEAN_MOTION_DDOT,SEMIMAJOR_AXIS,PERIOD,APOAPSIS,PERIAPSIS,OBJECT_TYPE,RCS_SIZE,COUNTRY_CODE,LAUNCH_DATE,SITE,DECAY_DATE,FILE,GP_ID,TLE_LINE0,TLE_LINE1,TLE_LINE2
"3.0","GENERATED VIA SPACE-TRACK.ORG API","2026-03-25T17:29:05","18 SPCS","ALOS DEB","2006-002AA","EARTH","TEME","UTC","SGP4","2026-03-25T10:20:52.901376","14.84672593","0.00023985","98.0380","56.2077","90.1452","270.0037","0","U","36571","999","85127","0.00047057841000","0.00003928","0.0000000000000","6992.751","96.991","616.293","612.939","DEBRIS","SMALL","JPN","2006-01-24","TNSTA","","5096884","317012059","0 ALOS DEB","1 36571U 06002AA  26084.43116784  .00003928  00000-0  47058-3 0  9993","2 36571  98.0380  56.2077 0002399  90.1452 270.0037 14.84672593851274"
"3.0","GENERATED VIA SPACE-TRACK.ORG API","2026-03-25T17:29:05","18 SPCS","SL-24 DEB","2010-028D","EARTH","TEME","UTC","SGP4","2026-03-25T13:02:16.305792","14.51858916","0.00158399","98.3092","286.3988","273.9409","85.9975","0","U","36601","999","83371","0.00014882536000","0.00000555","0.0000000000000","7097.721","99.183","730.828","708.343","DEBRIS","LARGE","CIS","2010-06-15","OREN","","5096884","317012068","0 SL-24 DEB","1 36601U 10028D   26084.54324428  .00000555  00000-0  14883-3 0  9991","2 36601  98.3092 286.3988 0015840 273.9409  85.9975 14.51858916833718"
"3.0","GENERATED VIA SPACE-TRACK.ORG API","2026-03-25T17:29:05","18 SPCS","SL-24 DEB","2010-028E","EARTH","TEME","UTC","SGP4","2026-03-25T06:28:05.887776","14.78642555","0.00141861","97.9653","284.6029","297.1125","62.8639","0","U","36602","999","84198","0.00044051106000","0.00003180","0.0000000000000","7011.749","97.387","643.561","623.667","DEBRIS","LARGE","CIS","2010-06-15","OREN","","5096884","317012569","0 SL-24 DEB","1 36602U 10028E   26084.26951259  .00003180  00000-0  44051-3 0  9996","2 36602  97.9653 284.6029 0014186 297.1125  62.8639 14.78642555841987"
"3.0","GENERATED VIA SPACE-TRACK.ORG API","2026-03-21T13:34:27","18 SPCS","FENGYUN 1C DEB","1999-025DYB","EARTH","TEME","UTC","SGP4","2026-03-21T05:33:04.126464","14.66524178","0.01033778","99.4250","250.5306","128.2599","232.7958","0","U","36657","999","67699","0.00065282552000","0.00003853","0.0000000000000","7050.323","98.191","745.073","599.303","DEBRIS","SMALL","PRC","1999-05-10","TSC","","5094773","316679388","0 FENGYUN 1C DEB","1 36657U 99025DYB 26080.23129776  .00003853  00000-0  65283-3 0  9991","2 36657  99.4250 250.5306 0103378 128.2599 232.7958 14.66524178676994"
"3.0","GENERATED VIA SPACE-TRACK.ORG API","2026-03-25T17:29:05","18 SPCS","FENGYUN 1C DEB","1999-025DZG","EARTH","TEME","UTC","SGP4","2026-03-25T07:26:57.052320","14.79004961","0.01019497","98.9998","292.7119","91.6522","269.6367","0","U","36686","999","67367","0.00073023620000","0.00005824","0.0000000000000","7010.604","97.363","703.942","560.996","DEBRIS","SMALL","PRC","1999-05-10","TSC","","5096884","317012585","0 FENGYUN 1C DEB","1 36686U 99025DZG 26084.31038255  .00005824  00000-0  73024-3 0  9999","2 36686  98.9998 292.7119 0101950  91.6522 269.6367 14.79004961673674"
"3.0","GENERATED VIA SPACE-TRACK.ORG API","2026-03-21T03:14:42","18 SPCS","FENGYUN 1C DEB","1999-025EEA","EARTH","TEME","UTC","SGP4","2026-03-20T13:29:26.846592","14.79572188","0.00496145","98.5950","210.7021","84.1955","276.4908","0","U","37042","999","74242","0.00218608770000","0.00016689","0.0000000000000","7008.812","97.325","665.451","595.903","DEBRIS","SMALL","PRC","1999-05-10","TSC","","5094740","316647297","0 FENGYUN 1C DEB","1 37042U 99025EEA 26079.56211628  .00016689  00000-0  21861-2 0  9996","2 37042  98.5950 210.7021 0049614  84.1955 276.4908 14.79572188742420"
"3.0","GENERATED VIA SPACE-TRACK.ORG API","2026-03-25T17:29:05","18 SPCS","FENGYUN 1C DEB","1999-025EEM","EARTH","TEME","UTC","SGP4","2026-03-25T03:16:44.152896","14.55197081","0.00414248","99.1414","204.6158","221.7553","263.9702","0","U","37053","999","66526","0.00139685320000","0.00006060","0.0000000000000","7086.862","98.956","738.084","679.370","DEBRIS","SMALL","PRC","1999-05-10","TSC","","5096884","317012656","0 FENGYUN 1C DEB","1 37053U 99025EEM 26084.13662214  .00006060  00000-0  13969-2 0  9990","2 37053  99.1414 204.6158 0041425 221.7553 263.9702 14.55197081665260"
"3.0","GENERATED VIA SPACE-TRACK.ORG API","2026-03-24T10:20:52","18 SPCS","FENGYUN 1C DEB","1999-025EFP","EARTH","TEME","UTC","SGP4","2026-03-24T03:12:50.198976","14.64120658","0.00137960","98.8604","230.3256","188.1283","171.9696","0","U","37079","999","66097","0.00320815260000","0.00016865","0.0000000000000","7058.037","98.353","689.639","670.165","DEBRIS","SMALL","PRC","1999-05-10","TSC","","5095853","316927968","0 FENGYUN 1C DEB","1 37079U 99025EFP 26083.13391434  .00016865  00000-0  32082-2 0  9991","2 37079  98.8604 230.3256 0013796 188.1283 171.9696 14.64120658660975"
"3.0","GENERATED VIA SPACE-TRACK.ORG API","2026-03-25T04:32:27","18 SPCS","CZ-4C DEB","2010-038D","EARTH","TEME","UTC","SGP4","2026-03-24T17:03:43.287552","14.76100232","0.01207010","97.9524","180.1198","179.5255","180.6091","0","U","37568","999","82332","0.00110263750000","0.00008526","0.0000000000000","7019.798","97.554","726.393","556.933","DEBRIS","SMALL","PRC","2010-08-09","TSC","","5096755","316979569","0 CZ-4C DEB","1 37568U 10038D   26083.71091768  .00008526  00000-0  11026-2 0  9992","2 37568  97.9524 180.1198 0120701 179.5255 180.6091 14.76100232823329"
"3.0","GENERATED VIA SPACE-TRACK.ORG API","2026-03-23T06:38:30","18 SPCS","CZ-4C DEB","2010-038F","EARTH","TEME","UTC","SGP4","2026-03-22T15:53:32.278560","14.75363545","0.01223985","97.8381","153.5854","141.0877","219.9222","0","U","37570","999","82550","0.00124752220000","0.00009516","0.0000000000000","7022.134","97.603","729.949","558.050","DEBRIS","SMALL","PRC","2010-08-09","TSC","","5094924","316810670","0 CZ-4C DEB","1 37570U 10038F   26081.66217915  .00009516  00000-0  12475-2 0  9990","2 37570  97.8381 153.5854 0122398 141.0877 219.9222 14.75363545825504"
"3.0","GENERATED VIA SPACE-TRACK.ORG API","2026-03-25T17:29:05","18 SPCS","THOR BURNER 2A DEB","1974-015H","EARTH","TEME","UTC","SGP4","2026-03-25T04:31:35.845248","14.75870902","0.00616153","99.0545","346.2968","179.5062","180.6216","0","U","37584","999","61716","0.00097158724000","0.00006818","0.0000000000000","7020.525","97.570","685.647","599.133","DEBRIS","SMALL","US","1974-03-16","AFWTR","","5096884","317012768","0 THOR BURNER 2A DEB","1 37584U 74015H   26084.18860932  .00006818  00000-0  97159-3 0  9998","2 37584  99.0545 346.2968 0061615 179.5062 180.6216 14.75870902617166"
"3.0","GENERATED VIA SPACE-TRACK.ORG API","2026-03-25T17:29:05","18 SPCS","FENGYUN 1C DEB","1999-025EKP","EARTH","TEME","UTC","SGP4","2026-03-25T13:54:50.788800","14.78114757","0.00236847","99.0486","310.8124","43.2259","348.5144","0","U","37595","999","64121","0.00415214060000","0.00030245","0.0000000000000","7013.418","97.421","651.894","618.672","DEBRIS","SMALL","PRC","1999-05-10","TSC","","5096884","317012271","0 FENGYUN 1C DEB","1 37595U 99025EKP 26084.57975450  .00030245  00000-0  41521-2 0  9995","2 37595  99.0486 310.8124 0023685  43.2259 348.5144 14.78114757641213"
"3.0","GENERATED VIA SPACE-TRACK.ORG API","2026-03-23T06:38:30","18 SPCS","CZ-4 DEB","1990-081CY","EARTH","TEME","UTC","SGP4","2026-03-22T20:56:58.396704","14.54714845","0.00303331","98.2751","123.5204","65.6871","112.7946","0","U","37612","999","67136","0.00090069174000","0.00003834","0.0000000000000","7088.428","98.988","731.794","688.791","DEBRIS","SMALL","PRC","1990-09-03","TSC","","5094924","316811183","0 CZ-4 DEB","1 37612U 90081CY  26081.87289811  .00003834  00000-0  90069-3 0  9993","2 37612  98.2751 123.5204 0030333  65.6871 112.7946 14.54714845671361"
"3.0","GENERATED VIA SPACE-TRACK.ORG API","2026-03-20T14:26:40","18 SPCS","CZ-4 DEB","1990-081DM","EARTH","TEME","UTC","SGP4","2026-03-20T06:57:50.484096","14.60324302","0.00005840","98.3518","86.5468","47.8323","312.2926","0","U","37625","999","22132","0.00087749000000","0.00004194","0.0000000000000","7070.264","98.608","692.542","691.716","DEBRIS","SMALL","PRC","1990-09-03","TSC","","5093190","316565906","0 CZ-4 DEB","1 37625U 90081DM  26079.29016764  .00004194  00000-0  87749-3 0  9996","2 37625  98.3518  86.5468 0000584  47.8323 312.2926 14.60324302221320"
"3.0","GENERATED VIA SPACE-TRACK.ORG API","2026-03-25T04:32:27","18 SPCS","DELTA 1 DEB","1978-026JG","EARTH","TEME","UTC","SGP4","2026-03-24T20:36:23.830560","14.54314197","0.00509382","98.7550","115.0462","26.8234","147.4576","0","U","37645","999","72923","0.00006332619100","0.00000221","0.0000000000000","7089.730","99.016","747.709","675.481","DEBRIS","SMALL","US","1978-03-05","AFWTR","","5096755","316979595","0 DELTA 1 DEB","1 37645U 78026JG  26083.85860915  .00000221  00000-0  63326-4 0  9998","2 37645  98.7550 115.0462 0050938  26.8234 147.4576 14.54314197729236"
"3.0","GENERATED VIA SPACE-TRACK.ORG API","2026-03-25T04:32:27","18 SPCS","DELTA 1 DEB","1978-026KE","EARTH","TEME","UTC","SGP4","2026-03-24T09:18:25.386048","14.86781754","0.00265309","98.2580","127.7864","86.3870","274.0378","0","U","37667","999","67881","0.00103405570000","0.00009219","0.0000000000000","6986.136","96.853","626.536","589.466","DEBRIS","SMALL","US","1978-03-05","AFWTR","","5096755","316979106","0 DELTA 1 DEB","1 37667U 78026KE  26083.38779382  .00009219  00000-0  10341-2 0  9990","2 37667  98.2580 127.7864 0026531  86.3870 274.0378 14.86781754678819"
